ONEWEB-0709             
1 55172U 23004AJ  25297.90511097  .00000317  00000+0  85846-3 0  9990
2 55172  87.8831  67.9442 0002524 100.9787 259.1625 13.11416212135038
ONEWEB-0710             
1 55173U 23004AK  25297.87759795 -.00000010  00000+0 -60194-4 0  9998
2 55173  87.9115  52.6658 0001646  93.0584 267.0736 13.17648559136596
ONEWEB-0711             
1 55174U 23004AL  25297.87628675  .00000161  00000+0  41708-3 0  9995
2 55174  87.8841  67.9198 0001479  69.1253 291.0033 13.11418784134999
ONEWEB-0713             
1 55175U 23004AM  25297.89494152  .00000588  00000+0  16240-2 0  9994
2 55175  87.8834  67.9209 0001514  87.0315 273.0987 13.11416664134985
ONEWEB-0715             
1 55176U 23004AN  25297.88985983  .00000526  00000+0  14476-2 0  9992
2 55176  87.8836  67.9216 0002294  90.7199 269.4192 13.11417800135029
ONEWEB-0716             
1 55177U 23004AP  25297.87083917  .00000069  00000+0  14506-3 0  9995
2 55177  87.9116  52.6670 0001660 107.6578 252.4735 13.17648439136590
ONEWEB-0717             
1 55178U 23004AQ  25297.85397115  .00000088  00000+0  19288-3 0  9995
2 55178  87.9125  52.6370 0001718  75.4346 284.6976 13.17649133136649
ONEWEB-0719             
1 55179U 23004AR  25297.86409831  .00000038  00000+0  64696-4 0  9995
2 55179  87.9124  52.6176 0001475 105.2559 254.8735 13.17649820136590
ONEWEB-0530             
1 55796U 23029A   25297.78986652  .00000079  00000+0  16210-3 0  9992
2 55796  87.9194 321.4320 0001580  78.8360 281.2950 13.20769868130071
ONEWEB-0534             
1 55797U 23029B   25298.00451157  .00000124  00000+0  27322-3 0  9993
2 55797  87.9192 321.3915 0001798  97.3536 262.7802 13.20770474130100
ONEWEB-0556             
1 55798U 23029C   25297.63203504 -.00000002  00000+0 -38039-4 0  9998
2 55798  87.9200 321.4633 0001143 103.8133 256.3128 13.20769811130056
ONEWEB-0562             
1 55799U 23029D   25297.99819983  .00000047  00000+0  83976-4 0  9999
2 55799  87.9194 321.3751 0001111  71.8494 288.2760 13.20772298130103
ONEWEB-0563             
1 55800U 23029E   25297.99188009  .00000013  00000+0  99211-6 0  9994
2 55800  87.9200 321.4014 0001787 102.7042 257.4291 13.20769892130090
ONEWEB-0564             
1 55801U 23029F   25297.98557529 -.00000041  00000+0 -13356-3 0  9997
2 55801  87.9194 321.3809 0001581  86.3057 273.8257 13.20770781130104
ONEWEB-0638             
1 55802U 23029G   25297.80852069  .00000103  00000+0  24454-3 0  9994
2 55802  87.9016 336.6619 0001337  98.9337 261.1944 13.14503819128474
ONEWEB-0639             
1 55803U 23029H   25297.69659581 -.00000029  00000+0 -10398-3 0  9997
2 55803  87.9241 351.8368 0002617 121.4948 238.6441 13.19724598127842
ONEWEB-0640             
1 55804U 23029J   25297.81803944 -.00000048  00000+0 -16409-3 0  9996
2 55804  87.9021 336.6451 0001422 120.1545 239.9726 13.14504198128494
ONEWEB-0641             
1 55805U 23029K   25297.84348883  .00000064  00000+0  12837-3 0  9993
2 55805  87.9251 351.7841 0002013 103.5881 256.5476 13.19725315127875
ONEWEB-0642             
1 55806U 23029L   25297.53548305  .00000025  00000+0  30095-4 0  9995
2 55806  87.9240 351.8731 0002657 114.0696 246.0715 13.19724390127825
ONEWEB-0643             
1 55807U 23029M   25297.86402749  .00000135  00000+0  33084-3 0  9995
2 55807  87.9018 336.6205 0002579 103.0946 257.0472 13.14503673128473
ONEWEB-0644             
1 55808U 23029N   25297.60655535  .00000022  00000+0  22388-4 0  9992
2 55808  87.9242 351.8683 0002306 108.1231 252.0153 13.19724747127835
ONEWEB-0645             
1 55809U 23029P   25297.45120565 -.00001617  00000+0 -40865-2 0  9997
2 55809  87.9298 351.8853 0001949  88.5059 271.6297 13.19476039127819
ONEWEB-0646             
1 55810U 23029Q   25297.87347435  .00000136  00000+0  30808-3 0  9992
2 55810  87.9240 351.7988 0002142 103.3600 256.7772 13.19727825127858
ONEWEB-0648             
1 55811U 23029R   25297.83229929 -.00000184  00000+0 -53105-3 0  9996
2 55811  87.9010 336.5911 0002322 121.4944 238.6413 13.14500831128474
ONEWEB-0649             
1 55812U 23029S   25297.59550595 -.00000001  00000+0 -33682-4 0  9993
2 55812  87.9249 351.8485 0002090 111.5011 248.6345 13.19724456127854
ONEWEB-0650             
1 55813U 23029T   25297.43913550  .00000037  00000+0  59275-4 0  9994
2 55813  87.9246 351.8886 0002054 102.8531 257.2831 13.19725571127807
ONEWEB-0652             
1 55814U 23029U   25297.50881368  .00000025  00000+0  33350-4 0  9997
2 55814  87.9023 336.6751 0001778  91.5827 268.5507 13.14503256128408
ONEWEB-0653             
1 55815U 23029V   25297.87354848  .00000204  00000+0  51619-3 0  9992
2 55815  87.9015 336.5926 0001622  95.7878 264.3437 13.14500440128489
ONEWEB-0654             
1 55816U 23029W   25297.86878705  .00000218  00000+0  55470-3 0  9999
2 55816  87.9018 336.5922 0001654  87.2773 272.8546 13.14503219128509
ONEWEB-0656             
1 55817U 23029X   25297.97926437 -.00000021  00000+0 -83239-4 0  9997
2 55817  87.9206 321.3347 0001653  80.5493 279.5827 13.20771404130101
ONEWEB-0657             
1 55818U 23029Y   25297.58600416  .00000071  00000+0  14563-3 0  9997
2 55818  87.9240 351.8621 0002353  80.8769 279.2630 13.19727804127838
ONEWEB-0658             
1 55819U 23029Z   25297.42965268  .00000050  00000+0  91587-4 0  9999
2 55819  87.9258 351.8377 0002233 106.3708 253.7671 13.19725706127820
ONEWEB-0660             
1 55820U 23029AA  25297.84657955 -.00000008  00000+0 -54788-4 0  9995
2 55820  87.9026 336.5719 0001741 106.8077 253.3244 13.14504308128485
ONEWEB-0661             
1 55821U 23029AB  25297.80534933  .00000085  00000+0  19608-3 0  9996
2 55821  87.9022 336.6500 0001628 104.9244 255.2066 13.14500805128469
ONEWEB-0662             
1 55822U 23029AC  25297.53575778 -.00000411  00000+0 -11436-2 0  9994
2 55822  87.9019 336.7079 0001776 107.3754 252.7570 13.14502686128477
ONEWEB-0663             
1 55823U 23029AD  25297.49871892  .00000035  00000+0  52916-4 0  9996
2 55823  87.9219 321.4924 0001948 107.9288 252.2058 13.20849341130039
ONEWEB-0664             
1 55824U 23029AE  25297.96662762 -.00000004  00000+0 -41229-4 0  9996
2 55824  87.9200 321.4129 0001497  94.6796 265.4509 13.20770010130091
ONEWEB-0665             
1 55825U 23029AF  25297.80217836  .00000209  00000+0  52798-3 0  9995
2 55825  87.9024 336.6268 0001865 106.2154 253.9181 13.14501700128484
ONEWEB-0666             
1 55826U 23029AG  25297.80880203  .00000011  00000+0 -45511-5 0  9999
2 55826  87.9202 321.4324 0002256  76.4126 283.7258 13.20770618130088
ONEWEB-0667             
1 55827U 23029AH  25297.80247325 -.00000024  00000+0 -91845-4 0  9997
2 55827  87.9207 321.3627 0001783  98.8027 261.3308 13.20774627130072
ONEWEB-0669             
1 55828U 23029AJ  25297.79776319 -.00000052  00000+0 -16093-3 0  9998
2 55828  87.9198 321.4021 0001443  74.0095 286.1197 13.20771493130074
ONEWEB-0670             
1 55829U 23029AK  25297.62774896  .00000149  00000+0  36682-3 0  9990
2 55829  87.9023 336.6812 0001540 104.6135 255.5166 13.14503624128481
ONEWEB-0671             
1 55830U 23029AL  25297.57655622  .00001223  00000+0  30229-2 0  9995
2 55830  87.9241 351.8571 0001891 103.0048 257.1296 13.19720131127829
ONEWEB-0672             
1 55831U 23029AM  25297.79303072 -.00000104  00000+0 -28846-3 0  9991
2 55831  87.9199 321.3846 0002012  85.4852 274.6511 13.20771518130073
ONEWEB-0673             
1 55832U 23029AN  25297.70449160  .00000344  00000+0  82752-3 0  9992
2 55832  87.9261 351.8051 0002038 102.6310 257.5051 13.19726447127848
ONEWEB-0674             
1 55833U 23029AP  25297.82437098 -.00000133  00000+0 -39364-3 0  9992
2 55833  87.9018 336.6232 0001420 104.9821 255.1467 13.14504390128490
ONEWEB-0675             
1 55834U 23029AQ  25297.87189941  .00000156  00000+0  35754-3 0  9991
2 55834  87.9238 351.8093 0002107  93.5162 266.6212 13.19723933127881
ONEWEB-0720             
1 55835U 23029AR  25297.86401682  .00000185  00000+0  42931-3 0  9997
2 55835  87.9243 351.8083 0002013 109.5064 250.6286 13.19725637127801
ONEWEB-0537             
1 56046U 23043A   25297.98400186 -.00000058  00000+0 -18568-3 0  9999
2 56046  87.8993 275.6202 0002025  80.3739 279.7621 13.16593826128010
ONEWEB-0538             
1 56047U 23043B   25297.97767953 -.00000070  00000+0 -21635-3 0  9990
2 56047  87.8984 275.6293 0002190  86.9436 273.1946 13.16594168128029
ONEWEB-0546             
1 56048U 23043C   25297.96500913 -.00000048  00000+0 -15875-3 0  9995
2 56048  87.8994 275.6181 0002184  67.5772 292.5590 13.16595054128012
ONEWEB-0547             
1 56049U 23043D   25297.98444537 -.00001340  00000+0 -32759-2 0  9992
2 56049  87.9169 290.8988 0001976  92.9475 267.1885 13.21831601127158
ONEWEB-0548             
1 56050U 23043E   25297.99034277  .00000018  00000+0  12548-4 0  9996
2 56050  87.8977 275.6280 0001406  85.0270 275.1021 13.16594069128011
ONEWEB-0549             
1 56051U 23043F   25297.97702153  .00001492  00000+0  35798-2 0  9997
2 56051  87.9166 290.9161 0002138  92.8841 267.2538 13.21820066127158
ONEWEB-0550             
1 56052U 23043G   25297.96388654  .00000189  00000+0  42691-3 0  9996
2 56052  87.9168 290.9131 0001717  86.8946 273.2385 13.21824293127152
ONEWEB-0551             
1 56053U 23043H   25297.98598284 -.00000019  00000+0 -84855-4 0  9994
2 56053  87.8963 306.1730 0001980  98.0558 262.0797 13.15549075125477
ONEWEB-0552             
1 56054U 23043J   25297.95895487  .00004739  00000+0  11441-1 0  9996
2 56054  87.9167 290.9232 0001981  97.8861 262.2498 13.21802819127159
ONEWEB-0553             
1 56055U 23043K   25297.97134582 -.00000101  00000+0 -29867-3 0  9995
2 56055  87.8984 275.6289 0001877  73.8449 286.2888 13.16594712128028
ONEWEB-0554             
1 56056U 23043L   25297.95865567 -.00000046  00000+0 -15457-3 0  9996
2 56056  87.8970 275.6516 0001611  83.1500 276.9814 13.16592084128008
